CCSDS_OMM_VERS = 2.0
CREATION_DATE  = 
ORIGINATOR     = 

OBJECT_NAME    = SL-14 R/B
OBJECT_ID      = 1986-046B
CENTER_NAME    = EARTH
REF_FRAME      = TEME
TIME_SYSTEM    = UTC
MEAN_ELEMENT_THEORY = SGP/SGP4

EPOCH          = 2025-12-31T20:16:13.039968
MEAN_MOTION    = 14.85509746
ECCENTRICITY   = .00245724
INCLINATION    = 82.4825
RA_OF_ASC_NODE = 144.2717
ARG_OF_PERICENTER = 92.2297
MEAN_ANOMALY   = 268.1733

EPHEMERIS_TYPE = 0
CLASSIFICATION_TYPE = U
NORAD_CAT_ID   = 16792
ELEMENT_SET_NO = 999
REV_AT_EPOCH   = 11633
BSTAR          = .10891316E-3
MEAN_MOTION_DOT = .969E-5
MEAN_MOTION_DDOT = 0

CCSDS_OMM_VERS = 2.0
CREATION_DATE  = 
ORIGINATOR     = 

OBJECT_NAME    = SL-14 R/B
OBJECT_ID      = 1986-055B
CENTER_NAME    = EARTH
REF_FRAME      = TEME
TIME_SYSTEM    = UTC
MEAN_ELEMENT_THEORY = SGP/SGP4

EPOCH          = 2025-12-31T22:04:37.881696
MEAN_MOTION    = 14.85553176
ECCENTRICITY   = .00185247
INCLINATION    = 82.5197
RA_OF_ASC_NODE = 190.3495
ARG_OF_PERICENTER = 192.1969
MEAN_ANOMALY   = 284.0874

EPHEMERIS_TYPE = 0
CLASSIFICATION_TYPE = U
NORAD_CAT_ID   = 16882
ELEMENT_SET_NO = 999
REV_AT_EPOCH   = 10930
BSTAR          = .10299892E-3
MEAN_MOTION_DOT = .917E-5
MEAN_MOTION_DDOT = 0

CCSDS_OMM_VERS = 2.0
CREATION_DATE  = 
ORIGINATOR     = 

OBJECT_NAME    = AJISAI (EGS)
OBJECT_ID      = 1986-061A
CENTER_NAME    = EARTH
REF_FRAME      = TEME
TIME_SYSTEM    = UTC
MEAN_ELEMENT_THEORY = SGP/SGP4

EPOCH          = 2025-12-31T22:31:37.094592
MEAN_MOTION    = 12.44514515
ECCENTRICITY   = .00113208
INCLINATION    = 50.0108
RA_OF_ASC_NODE = 301.6828
ARG_OF_PERICENTER = 114.0862
MEAN_ANOMALY   = 325.1282

EPHEMERIS_TYPE = 0
CLASSIFICATION_TYPE = U
NORAD_CAT_ID   = 16908
ELEMENT_SET_NO = 999
REV_AT_EPOCH   = 45956
BSTAR          = .49143897E-4
MEAN_MOTION_DOT = -.91E-6
MEAN_MOTION_DDOT = 0

CCSDS_OMM_VERS = 2.0
CREATION_DATE  = 
ORIGINATOR     = 

OBJECT_NAME    = COSMOS 1812
OBJECT_ID      = 1987-003A
CENTER_NAME    = EARTH
REF_FRAME      = TEME
TIME_SYSTEM    = UTC
MEAN_ELEMENT_THEORY = SGP/SGP4

EPOCH          = 2025-12-31T18:14:57.716736
MEAN_MOTION    = 15.79995404
ECCENTRICITY   = .00052974
INCLINATION    = 82.4867
RA_OF_ASC_NODE = 271.3658
ARG_OF_PERICENTER = 62.6456
MEAN_ANOMALY   = 297.5350

EPHEMERIS_TYPE = 0
CLASSIFICATION_TYPE = U
NORAD_CAT_ID   = 17295
ELEMENT_SET_NO = 999
REV_AT_EPOCH   = 13365
BSTAR          = .86734213E-3
MEAN_MOTION_DOT = .163146E-2
MEAN_MOTION_DDOT = 0

CCSDS_OMM_VERS = 2.0
CREATION_DATE  = 
ORIGINATOR     = 

OBJECT_NAME    = SL-14 R/B
OBJECT_ID      = 1987-024B
CENTER_NAME    = EARTH
REF_FRAME      = TEME
TIME_SYSTEM    = UTC
MEAN_ELEMENT_THEORY = SGP/SGP4

EPOCH          = 2025-12-31T21:39:46.634112
MEAN_MOTION    = 14.86048850
ECCENTRICITY   = .00194449
INCLINATION    = 82.5284
RA_OF_ASC_NODE = 156.4527
ARG_OF_PERICENTER = 122.8825
MEAN_ANOMALY   = 237.4266

EPHEMERIS_TYPE = 0
CLASSIFICATION_TYPE = U
NORAD_CAT_ID   = 17567
ELEMENT_SET_NO = 999
REV_AT_EPOCH   = 7806
BSTAR          = .11190472E-3
MEAN_MOTION_DOT = .1006E-4
MEAN_MOTION_DDOT = 0

CCSDS_OMM_VERS = 2.0
CREATION_DATE  = 
ORIGINATOR     = 

OBJECT_NAME    = COSMOS 1833
OBJECT_ID      = 1987-027A
CENTER_NAME    = EARTH
REF_FRAME      = TEME
TIME_SYSTEM    = UTC
MEAN_ELEMENT_THEORY = SGP/SGP4

EPOCH          = 2025-12-31T16:33:13.684608
MEAN_MOTION    = 14.13032989
ECCENTRICITY   = .002342
INCLINATION    = 70.9178
RA_OF_ASC_NODE = 108.9430
ARG_OF_PERICENTER = 305.3649
MEAN_ANOMALY   = 54.5284

EPHEMERIS_TYPE = 0
CLASSIFICATION_TYPE = U
NORAD_CAT_ID   = 17589
ELEMENT_SET_NO = 999
REV_AT_EPOCH   = 71
BSTAR          = .20410865E-3
MEAN_MOTION_DOT = .334E-5
MEAN_MOTION_DDOT = 0

CCSDS_OMM_VERS = 2.0
CREATION_DATE  = 
ORIGINATOR     = 

OBJECT_NAME    = SL-16 R/B
OBJECT_ID      = 1987-027B
CENTER_NAME    = EARTH
REF_FRAME      = TEME
TIME_SYSTEM    = UTC
MEAN_ELEMENT_THEORY = SGP/SGP4

EPOCH          = 2025-12-31T13:52:25.419072
MEAN_MOTION    = 14.17156031
ECCENTRICITY   = .00070674
INCLINATION    = 71.0033
RA_OF_ASC_NODE = 60.0231
ARG_OF_PERICENTER = 240.0219
MEAN_ANOMALY   = 120.0204

EPHEMERIS_TYPE = 0
CLASSIFICATION_TYPE = U
NORAD_CAT_ID   = 17590
ELEMENT_SET_NO = 999
REV_AT_EPOCH   = 569
BSTAR          = -.2231717E-4
MEAN_MOTION_DOT = -.93E-6
MEAN_MOTION_DDOT = 0

CCSDS_OMM_VERS = 2.0
CREATION_DATE  = 
ORIGINATOR     = 

OBJECT_NAME    = SL-14 R/B
OBJECT_ID      = 1987-038B
CENTER_NAME    = EARTH
REF_FRAME      = TEME
TIME_SYSTEM    = UTC
MEAN_ELEMENT_THEORY = SGP/SGP4

EPOCH          = 2025-12-31T22:19:17.681664
MEAN_MOTION    = 14.85283324
ECCENTRICITY   = .00201559
INCLINATION    = 82.5010
RA_OF_ASC_NODE = 0.6235
ARG_OF_PERICENTER = 32.7569
MEAN_ANOMALY   = 327.4892

EPHEMERIS_TYPE = 0
CLASSIFICATION_TYPE = U
NORAD_CAT_ID   = 17912
ELEMENT_SET_NO = 999
REV_AT_EPOCH   = 6917
BSTAR          = .10458054E-3
MEAN_MOTION_DOT = .925E-5
MEAN_MOTION_DDOT = 0

CCSDS_OMM_VERS = 2.0
CREATION_DATE  = 
ORIGINATOR     = 

OBJECT_NAME    = COSMOS 1844
OBJECT_ID      = 1987-041A
CENTER_NAME    = EARTH
REF_FRAME      = TEME
TIME_SYSTEM    = UTC
MEAN_ELEMENT_THEORY = SGP/SGP4

EPOCH          = 2025-12-31T20:49:03.829152
MEAN_MOTION    = 14.14536870
ECCENTRICITY   = .0029043
INCLINATION    = 70.8983
RA_OF_ASC_NODE = 177.2277
ARG_OF_PERICENTER = 126.8239
MEAN_ANOMALY   = 233.5553

EPHEMERIS_TYPE = 0
CLASSIFICATION_TYPE = U
NORAD_CAT_ID   = 17973
ELEMENT_SET_NO = 999
REV_AT_EPOCH   = 99399
BSTAR          = .18157517E-3
MEAN_MOTION_DOT = .302E-5
MEAN_MOTION_DDOT = 0

CCSDS_OMM_VERS = 2.0
CREATION_DATE  = 
ORIGINATOR     = 

OBJECT_NAME    = SL-14 R/B
OBJECT_ID      = 1987-055B
CENTER_NAME    = EARTH
REF_FRAME      = TEME
TIME_SYSTEM    = UTC
MEAN_ELEMENT_THEORY = SGP/SGP4

EPOCH          = 2025-12-31T15:34:47.740224
MEAN_MOTION    = 14.85543509
ECCENTRICITY   = .0019413
INCLINATION    = 82.4985
RA_OF_ASC_NODE = 53.1661
ARG_OF_PERICENTER = 236.2832
MEAN_ANOMALY   = 123.6534

EPHEMERIS_TYPE = 0
CLASSIFICATION_TYPE = U
NORAD_CAT_ID   = 18153
ELEMENT_SET_NO = 999
REV_AT_EPOCH   = 5983
BSTAR          = .97957627E-4
MEAN_MOTION_DOT = .873E-5
MEAN_MOTION_DDOT = 0

CCSDS_OMM_VERS = 2.0
CREATION_DATE  = 
ORIGINATOR     = 

OBJECT_NAME    = COSMOS 1867
OBJECT_ID      = 1987-060A
CENTER_NAME    = EARTH
REF_FRAME      = TEME
TIME_SYSTEM    = UTC
MEAN_ELEMENT_THEORY = SGP/SGP4

EPOCH          = 2025-12-31T17:52:59.627712
MEAN_MOTION    = 14.31490013
ECCENTRICITY   = .00137836
INCLINATION    = 65.0102
RA_OF_ASC_NODE = 136.9797
ARG_OF_PERICENTER = 273.0746
MEAN_ANOMALY   = 86.8761

EPHEMERIS_TYPE = 0
CLASSIFICATION_TYPE = U
NORAD_CAT_ID   = 18187
ELEMENT_SET_NO = 999
REV_AT_EPOCH   = 1021
BSTAR          = .58951029E-4
MEAN_MOTION_DOT = .57E-6
MEAN_MOTION_DDOT = 0

CCSDS_OMM_VERS = 2.0
CREATION_DATE  = 
ORIGINATOR     = 

OBJECT_NAME    = SL-14 R/B
OBJECT_ID      = 1988-001B
CENTER_NAME    = EARTH
REF_FRAME      = TEME
TIME_SYSTEM    = UTC
MEAN_ELEMENT_THEORY = SGP/SGP4

EPOCH          = 2025-12-31T18:35:38.180544
MEAN_MOTION    = 14.85446638
ECCENTRICITY   = .00195808
INCLINATION    = 82.5130
RA_OF_ASC_NODE = 259.2452
ARG_OF_PERICENTER = 101.8715
MEAN_ANOMALY   = 258.4698

EPHEMERIS_TYPE = 0
CLASSIFICATION_TYPE = U
NORAD_CAT_ID   = 18749
ELEMENT_SET_NO = 999
REV_AT_EPOCH   = 3194
BSTAR          = .98615295E-4
MEAN_MOTION_DOT = .877E-5
MEAN_MOTION_DDOT = 0

