SL-14 R/B               
1 16792U 86046B   25365.84459537  .00000969  00000+0  10891-3 0  9990
2 16792  82.4825 144.2717 0024572  92.2297 268.1733 14.85509746116336
SL-14 R/B               
1 16882U 86055B   25365.91988289  .00000917  00000+0  10300-3 0  9997
2 16882  82.5197 190.3495 0018524 192.1969 284.0874 14.85553176109308
AJISAI (EGS)            
1 16908U 86061A   25365.93862378 -.00000091  00000+0  49144-4 0  9998
2 16908  50.0108 301.6828 0011320 114.0862 325.1282 12.44514515459561
COSMOS 1812             
1 17295U 87003A   25365.76039024  .00163146  00000+0  86734-3 0  9995
2 17295  82.4867 271.3658 0005297  62.6456 297.5350 15.79995404133657
SL-14 R/B               
1 17567U 87024B   25365.90262308  .00001006  00000+0  11190-3 0  9999
2 17567  82.5284 156.4527 0019444 122.8825 237.4266 14.86048850 78062
COSMOS 1833             
1 17589U 87027A   25365.68974172  .00000334  00000+0  20411-3 0  9999
2 17589  70.9178 108.9430 0023420 305.3649  54.5284 14.13032989   716
SL-16 R/B               
1 17590U 87027B   25365.57807198 -.00000093  00000+0 -22317-4 0  9994
2 17590  71.0033  60.0231 0007067 240.0219 120.0204 14.17156031  5696
SL-14 R/B               
1 17912U 87038B   25365.93006576  .00000925  00000+0  10458-3 0  9999
2 17912  82.5010   0.6235 0020155  32.7569 327.4892 14.85283324 69177
COSMOS 1844             
1 17973U 87041A   25365.86740543  .00000302  00000+0  18158-3 0  9995
2 17973  70.8983 177.2277 0029043 126.8239 233.5553 14.14536870993990
SL-14 R/B               
1 18153U 87055B   25365.64916366  .00000873  00000+0  97958-4 0  9994
2 18153  82.4985  53.1661 0019413 236.2832 123.6534 14.85543509 59835
COSMOS 1867             
1 18187U 87060A   25365.74513458  .00000057  00000+0  58951-4 0  9997
2 18187  65.0102 136.9797 0013783 273.0746  86.8761 14.31490013 10210
SL-14 R/B               
1 18749U 88001B   25365.77474746  .00000877  00000+0  98615-4 0  9997
2 18749  82.5130 259.2452 0019580 101.8715 258.4698 14.85446638 31943
